OBJECT_NAME,OBJECT_ID,EPOCH,MEAN_MOTION,ECCENTRICITY,INCLINATION,RA_OF_ASC_NODE,ARG_OF_PERICENTER,MEAN_ANOMALY,EPHEMERIS_TYPE,CLASSIFICATION_TYPE,NORAD_CAT_ID,ELEMENT_SET_NO,REV_AT_EPOCH,BSTAR,MEAN_MOTION_DOT,MEAN_MOTION_DDOT
COSMOS 2507 (RODNIK-S 13),2015-050A,2026-07-02T14:33:35.480160,12.42927542,.00094928,82.4921,70.0701,323.0198,37.0227,0,U,40920,999,48877,.10516614E-2,.156E-5,0
COSMOS 2508 (RODNIK-S 14),2015-050B,2026-07-02T15:24:56.784960,12.42915160,.00145273,82.4874,68.5471,354.4732,5.6186,0,U,40921,999,48876,.12326302E-2,.181E-5,0
COSMOS 2509 (RODNIK-S 15),2015-050C,2026-07-02T15:54:46.934208,12.42884740,.00151939,82.4881,68.6381,11.0623,349.0788,0,U,40922,999,48880,.14449255E-2,.21E-5,0
LINGQIAO VIDEO A,2015-057B,2026-07-02T14:24:29.033856,14.77411499,.00156066,97.6620,177.6423,215.4610,144.5565,0,U,40959,999,57768,.73916424E-4,.478E-5,0
LINGQIAO VIDEO B,2015-057C,2026-07-02T15:26:49.046208,14.77519009,.00157218,97.6586,178.8428,215.3910,144.6259,0,U,40960,999,57773,.97317161E-4,.647E-5,0
JILIN-1,2015-057D,2026-07-02T13:58:52.336416,14.78185485,.00160789,97.6511,182.1851,208.5698,151.4634,0,U,40961,999,57788,.1373555E-3,.949E-5,0
FOX-1A (AO-85),2015-058D,2026-07-02T13:52:35.907168,14.91033762,.01314555,64.7737,231.1515,50.6094,310.6573,0,U,40967,999,11586,.23339563E-3,.2553E-4,0
SINOD-D 1,2015-058E,2026-07-02T12:30:14.587488,14.95996618,.01200806,64.7729,210.8898,47.0354,314.0753,0,U,40968,999,11895,.32377633E-3,.4032E-4,0
ELEKTRO-L 2,2015-074A,2026-07-01T22:30:52.736832,1.00271077,.00005169,6.7296,70.3426,273.6365,259.1662,0,U,41105,999,3865,0,-.111E-5,0
DAMPE,2015-078A,2026-07-02T14:16:53.331744,15.30826646,.00129502,97.4553,189.1379,28.7631,331.4322,0,U,41173,999,58690,.61700688E-4,.1763E-4,0
ORBCOMM FM110,2015-081D,2026-07-02T13:57:30.996000,14.58904662,.00029056,47.0025,288.6535,164.8936,195.2037,0,U,41182,999,55987,.20610758E-3,.804E-5,0
ORBCOMM FM112,2015-081F,2026-07-02T11:35:50.680608,14.58920763,.00041446,46.9969,197.9148,277.6663,82.3752,0,U,41184,999,56118,.1406351E-3,.494E-5,0
ORBCOMM FM113,2015-081G,2026-07-02T11:02:54.525120,14.58871678,.00026227,46.9988,198.4071,276.7914,83.2674,0,U,41185,999,56116,.10929101E-3,.345E-5,0
ORBCOMM FM108,2015-081J,2026-07-02T11:47:07.501056,14.58893747,.00031341,47.0047,109.8395,277.2478,82.8052,0,U,41187,999,56231,.18867665E-3,.721E-5,0
ORBCOMM FM117,2015-081K,2026-07-02T12:36:14.723424,14.58880991,.00035768,47.0010,108.3083,281.8418,78.2066,0,U,41188,999,56236,.17124988E-3,.638E-5,0
ORBCOMM FM116,2015-081L,2026-07-01T11:28:30.790560,14.58897315,.00009405,47.0005,203.0491,184.3505,175.7373,0,U,41189,999,56102,.10040343E-3,.304E-5,0
HORYU-4,2016-012D,2026-07-01T19:00:28.190016,16.27112331,.00086595,30.9791,330.1929,346.1826,13.8606,0,U,41340,999,57316,.11150615E-2,.4204222E-1,-.3865025E-5
ZIYUAN 3-02 (ZY 3-02),2016-033A,2026-07-02T15:32:02.406912,15.21327604,.00128701,97.3831,259.1242,230.7394,129.2700,0,U,41556,999,56033,.26043155E-3,.5774E-4,0
CARTOSAT-2C,2016-040A,2026-07-02T09:45:52.812864,15.19310275,.00105368,97.4476,243.1756,85.9757,274.2682,0,U,41599,999,55602,.1640355E-3,.3399E-4,0
LAPAN-A3,2016-040E,2026-07-02T14:15:46.160928,15.33205648,.00089857,97.1491,179.2348,330.0523,30.0204,0,U,41603,999,55717,.13164347E-3,.4152E-4,0
GAOFEN-3,2016-049A,2026-07-02T14:59:29.336640,14.42217175,.00016705,98.4006,191.1774,93.0416,267.0965,0,U,41727,999,52087,.3944552E-5,-.3E-6,0
CAS-2T & KS-1Q,2016-066G,2026-07-02T14:47:07.867392,14.44744619,.03427921,98.3817,259.1758,82.8250,281.1776,0,U,41847,999,50702,.24657525E-3,.1715E-4,0
YUNHAI-1 01,2016-068A,2026-07-01T06:37:36.333408,14.32433568,.00053904,98.5838,193.1495,21.2551,338.8855,0,U,41857,999,50384,.24983978E-3,.632E-5,0
RESOURCESAT-2A,2016-074A,2026-07-02T15:00:24.685344,14.21606130,.00030365,98.7527,257.0036,53.8148,306.3310,0,U,41877,999,49649,.17736495E-3,.345E-5,0
