COSMOS 2507 (RODNIK-S *)
1 40920U 15050A   26183.60666065  .00000156  00000+0  10517-2 0  9998
2 40920  82.4921  70.0701 0009492 323.0198  37.0227 12.42927542488771
COSMOS 2508 (RODNIK-S *)
1 40921U 15050B   26183.64232390  .00000181  00000+0  12326-2 0  9991
2 40921  82.4874  68.5471 0014527 354.4732   5.6186 12.42915160488769
COSMOS 2509 (RODNIK-S *)
1 40922U 15050C   26183.66304322  .00000210  00000+0  14449-2 0  9990
2 40922  82.4881  68.6381 0015193  11.0623 349.0788 12.42884740488801
LINGQIAO VIDEO A        
1 40959U 15057B   26183.60033604  .00000478  00000+0  73916-4 0  9995
2 40959  97.6620 177.6423 0015606 215.4610 144.5565 14.77411499577686
LINGQIAO VIDEO B        
1 40960U 15057C   26183.64362322  .00000647  00000+0  97317-4 0  9992
2 40960  97.6586 178.8428 0015721 215.3910 144.6259 14.77519009577730
JILIN-1                 
1 40961U 15057D   26183.58255019  .00000949  00000+0  13736-3 0  9997
2 40961  97.6511 182.1851 0016078 208.5698 151.4634 14.78185485577887
FOX-1A (AO-85)          
1 40967U 15058D   26183.57819337  .00002553  00000+0  23340-3 0  9997
2 40967  64.7737 231.1515 0131455  50.6094 310.6573 14.91033762115865
SINOD-D 1               
1 40968U 15058E   26183.52100217  .00004032  00000+0  32378-3 0  9998
2 40968  64.7729 210.8898 0120080  47.0354 314.0753 14.95996618118959
ELEKTRO-L 2             
1 41105U 15074A   26182.93811038 -.00000111  00000+0  00000+0 0  9992
2 41105   6.7296  70.3426 0000516 273.6365 259.1662  1.00271077 38657
DAMPE                   
1 41173U 15078A   26183.59506171  .00001763  00000+0  61701-4 0  9996
2 41173  97.4553 189.1379 0012950  28.7631 331.4322 15.30826646586900
ORBCOMM FM110           
1 41182U 15081D   26183.58160875  .00000804  00000+0  20611-3 0  9995
2 41182  47.0025 288.6535 0002905 164.8936 195.2037 14.58904662559872
ORBCOMM FM112           
1 41184U 15081F   26183.48322547  .00000494  00000+0  14064-3 0  9992
2 41184  46.9969 197.9148 0004144 277.6663  82.3752 14.58920763561185
ORBCOMM FM113           
1 41185U 15081G   26183.46035330  .00000345  00000+0  10929-3 0  9993
2 41185  46.9988 198.4071 0002622 276.7914  83.2674 14.58871678561167
ORBCOMM FM108           
1 41187U 15081J   26183.49105904  .00000721  00000+0  18868-3 0  9991
2 41187  47.0047 109.8395 0003134 277.2478  82.8052 14.58893747562316
ORBCOMM FM117           
1 41188U 15081K   26183.52517041  .00000638  00000+0  17125-3 0  9997
2 41188  47.0010 108.3083 0003576 281.8418  78.2066 14.58880991562366
ORBCOMM FM116           
1 41189U 15081L   26182.47813415  .00000304  00000+0  10040-3 0  9994
2 41189  47.0005 203.0491 0000940 184.3505 175.7373 14.58897315561027
HORYU-4                 
1 41340U 16012D   26182.79199294  .04204222 -38650-5  11151-2 0  9996
2 41340  30.9791 330.1929 0008659 346.1826  13.8606 16.27112331573161
ZIYUAN 3-02 (ZY 3-02)   
1 41556U 16033A   26183.64725008  .00005774  00000+0  26043-3 0  9996
2 41556  97.3831 259.1242 0012870 230.7394 129.2700 15.21327604560334
CARTOSAT-2C             
1 41599U 16040A   26183.40686126  .00003399  00000+0  16404-3 0  9993
2 41599  97.4476 243.1756 0010536  85.9757 274.2682 15.19310275556024
LAPAN-A3                
1 41603U 16040E   26183.59428427  .00004152  00000+0  13164-3 0  9995
2 41603  97.1491 179.2348 0008985 330.0523  30.0204 15.33205648557178
GAOFEN-3                
1 41727U 16049A   26183.62464510 -.00000030  00000+0  39446-5 0  9993
2 41727  98.4006 191.1774 0001670  93.0416 267.0965 14.42217175520878
CAS-2T & KS-1Q          
1 41847U 16066G   26183.61606328  .00001715  00000+0  24658-3 0  9996
2 41847  98.3817 259.1758 0342792  82.8250 281.1776 14.44744619507021
YUNHAI-1 01             
1 41857U 16068A   26182.27611497  .00000632  00000+0  24984-3 0  9992
2 41857  98.5838 193.1495 0005390  21.2551 338.8855 14.32433568503842
RESOURCESAT-2A          
1 41877U 16074A   26183.62528571  .00000345  00000+0  17736-3 0  9999
2 41877  98.7527 257.0036 0003036  53.8148 306.3310 14.21606130496493
